{
  "type": "FeatureCollection",
  "features": [
    {
      "type": "Feature",
      "properties": {
        "norad_id": 37978,
        "name": "COSMOS 2251 DEB",
        "group": "cosmos-2251-debris",
        "lat": 19.886126791609193,
        "lon": 113.40946197100084,
        "alt_km": 340.081843010832,
        "timestamp": "2025-12-04T15:47:54.497157+00:00",
        "meta_object_name": "COSMOS 2251 DEB",
        "meta_object_id": "1993-036BQD",
        "meta_epoch": "2025-11-19T05:08:53.100672",
        "meta_mean_motion": 15.61137081,
        "meta_eccentricity": 0.00148985,
        "meta_inclination": 74.0238,
        "meta_ra_of_asc_node": 142.2198,
        "meta_arg_of_pericenter": 140.9849,
        "meta_mean_anomaly": 219.2448,
        "meta_ephemeris_type": 0,
        "meta_classification_type": "U",
        "meta_norad_cat_id": 37978,
        "meta_element_set_no": 999,
        "meta_rev_at_epoch": 8032,
        "meta_bstar": 0.0043958825,
        "meta_mean_motion_dot": 0.0039117,
        "meta_mean_motion_ddot": 0,
        "tle_line1": "1 37978U 93036BQD 25323.21450348  .00391170  00000+0  43959-2 0  9999",
        "tle_line2": "2 37978  74.0238 142.2198 0014898 140.9849 219.2448 15.61137081 80328"
      },
      "geometry": {
        "type": "Point",
        "coordinates": [
          113.40946197100084,
          19.886126791609193
        ]
      }
    },
    {
      "type": "Feature",
      "properties": {
        "norad_id": 37985,
        "name": "COSMOS 2251 DEB",
        "group": "cosmos-2251-debris",
        "lat": -55.627535820358624,
        "lon": 125.32789952665419,
        "alt_km": 794.4514087085854,
        "timestamp": "2025-12-04T15:47:54.497167+00:00",
        "meta_object_name": "COSMOS 2251 DEB",
        "meta_object_id": "1993-036BQL",
        "meta_epoch": "2025-12-04T02:58:50.123136",
        "meta_mean_motion": 14.35478479,
        "meta_eccentricity": 0.00205167,
        "meta_inclination": 74.0252,
        "meta_ra_of_asc_node": 281.5497,
        "meta_arg_of_pericenter": 46.9624,
        "meta_mean_anomaly": 313.3243,
        "meta_ephemeris_type": 0,
        "meta_classification_type": "U",
        "meta_norad_cat_id": 37985,
        "meta_element_set_no": 999,
        "meta_rev_at_epoch": 64793,
        "meta_bstar": 0.00010075187,
        "meta_mean_motion_dot": 2.64e-06,
        "meta_mean_motion_ddot": 0,
        "tle_line1": "1 37985U 93036BQL 25338.12419124  .00000264  00000+0  10075-3 0  9995",
        "tle_line2": "2 37985  74.0252 281.5497 0020516  46.9624 313.3243 14.35478479647935"
      },
      "geometry": {
        "type": "Point",
        "coordinates": [
          125.32789952665419,
          -55.627535820358624
        ]
      }
    },
    {
      "type": "Feature",
      "properties": {
        "norad_id": 37988,
        "name": "COSMOS 2251 DEB",
        "group": "cosmos-2251-debris",
        "lat": -8.500795230324025,
        "lon": 37.192002320781,
        "alt_km": 667.4695631307695,
        "timestamp": "2025-12-04T15:47:54.497177+00:00",
        "meta_object_name": "COSMOS 2251 DEB",
        "meta_object_id": "1993-036BQP",
        "meta_epoch": "2025-12-03T03:52:26.933376",
        "meta_mean_motion": 14.68713906,
        "meta_eccentricity": 0.00633293,
        "meta_inclination": 74.0639,
        "meta_ra_of_asc_node": 42.5299,
        "meta_arg_of_pericenter": 83.2268,
        "meta_mean_anomaly": 277.6103,
        "meta_ephemeris_type": 0,
        "meta_classification_type": "U",
        "meta_norad_cat_id": 37988,
        "meta_element_set_no": 999,
        "meta_rev_at_epoch": 23255,
        "meta_bstar": 0.001359236,
        "meta_mean_motion_dot": 8.141e-05,
        "meta_mean_motion_ddot": 0,
        "tle_line1": "1 37988U 93036BQP 25337.16142284  .00008141  00000+0  13592-2 0  9999",
        "tle_line2": "2 37988  74.0639  42.5299 0063329  83.2268 277.6103 14.68713906232557"
      },
      "geometry": {
        "type": "Point",
        "coordinates": [
          37.192002320781,
          -8.500795230324025
        ]
      }
    },
    {
      "type": "Feature",
      "properties": {
        "norad_id": 37993,
        "name": "COSMOS 2251 DEB",
        "group": "cosmos-2251-debris",
        "lat": 28.987878473112996,
        "lon": -168.52218116336934,
        "alt_km": 699.5636281352463,
        "timestamp": "2025-12-04T15:47:54.497187+00:00",
        "meta_object_name": "COSMOS 2251 DEB",
        "meta_object_id": "1993-036BQU",
        "meta_epoch": "2025-12-03T19:55:21.764064",
        "meta_mean_motion": 14.59748626,
        "meta_eccentricity": 0.00218643,
        "meta_inclination": 74.0235,
        "meta_ra_of_asc_node": 183.9251,
        "meta_arg_of_pericenter": 273.6547,
        "meta_mean_anomaly": 86.2118,
        "meta_ephemeris_type": 0,
        "meta_classification_type": "U",
        "meta_norad_cat_id": 37993,
        "meta_element_set_no": 999,
        "meta_rev_at_epoch": 65187,
        "meta_bstar": 0.0022910126,
        "meta_mean_motion_dot": 0.00010959,
        "meta_mean_motion_ddot": 0,
        "tle_line1": "1 37993U 93036BQU 25337.83011301  .00010959  00000+0  22910-2 0  9998",
        "tle_line2": "2 37993  74.0235 183.9251 0021864 273.6547  86.2118 14.59748626651873"
      },
      "geometry": {
        "type": "Point",
        "coordinates": [
          -168.52218116336934,
          28.987878473112996
        ]
      }
    },
    {
      "type": "Feature",
      "properties": {
        "norad_id": 37994,
        "name": "COSMOS 2251 DEB",
        "group": "cosmos-2251-debris",
        "lat": -14.008747365119456,
        "lon": -73.48333337571373,
        "alt_km": 749.6680098455427,
        "timestamp": "2025-12-04T15:47:54.497198+00:00",
        "meta_object_name": "COSMOS 2251 DEB",
        "meta_object_id": "1993-036BQV",
        "meta_epoch": "2025-12-03T23:11:15.562176",
        "meta_mean_motion": 14.39589981,
        "meta_eccentricity": 0.00224982,
        "meta_inclination": 74.0358,
        "meta_ra_of_asc_node": 291.8896,
        "meta_arg_of_pericenter": 13.1498,
        "meta_mean_anomaly": 347.0239,
        "meta_ephemeris_type": 0,
        "meta_classification_type": "U",
        "meta_norad_cat_id": 37994,
        "meta_element_set_no": 999,
        "meta_rev_at_epoch": 76938,
        "meta_bstar": 0.00068024157,
        "meta_mean_motion_dot": 2.105e-05,
        "meta_mean_motion_ddot": 0,
        "tle_line1": "1 37994U 93036BQV 25337.96615234  .00002105  00000+0  68024-3 0  9999",
        "tle_line2": "2 37994  74.0358 291.8896 0022498  13.1498 347.0239 14.39589981769383"
      },
      "geometry": {
        "type": "Point",
        "coordinates": [
          -73.48333337571373,
          -14.008747365119456
        ]
      }
    },
    {
      "type": "Feature",
      "properties": {
        "norad_id": 37996,
        "name": "COSMOS 2251 DEB",
        "group": "cosmos-2251-debris",
        "lat": 22.912282636086516,
        "lon": -135.65513941727983,
        "alt_km": 761.7323224269658,
        "timestamp": "2025-12-04T15:47:54.497208+00:00",
        "meta_object_name": "COSMOS 2251 DEB",
        "meta_object_id": "1993-036BQX",
        "meta_epoch": "2025-11-16T18:35:00.708864",
        "meta_mean_motion": 14.09591608,
        "meta_eccentricity": 0.02219827,
        "meta_inclination": 74.0658,
        "meta_ra_of_asc_node": 248.8308,
        "meta_arg_of_pericenter": 5.4709,
        "meta_mean_anomaly": 354.8776,
        "meta_ephemeris_type": 0,
        "meta_classification_type": "U",
        "meta_norad_cat_id": 37996,
        "meta_element_set_no": 999,
        "meta_rev_at_epoch": 55769,
        "meta_bstar": 0.0096790999,
        "meta_mean_motion_dot": 0.00021331,
        "meta_mean_motion_ddot": 0,
        "tle_line1": "1 37996U 93036BQX 25320.77431376  .00021331  00000+0  96791-2 0  9998",
        "tle_line2": "2 37996  74.0658 248.8308 0221982   5.4709 354.8776 14.09591608557693"
      },
      "geometry": {
        "type": "Point",
        "coordinates": [
          -135.65513941727983,
          22.912282636086516
        ]
      }
    },
    {
      "type": "Feature",
      "properties": {
        "norad_id": 37998,
        "name": "COSMOS 2251 DEB",
        "group": "cosmos-2251-debris",
        "lat": 70.17694663201878,
        "lon": -57.26838692380912,
        "alt_km": 738.9204467346135,
        "timestamp": "2025-12-04T15:47:54.497219+00:00",
        "meta_object_name": "COSMOS 2251 DEB",
        "meta_object_id": "1993-036BQZ",
        "meta_epoch": "2025-11-29T12:31:01.771392",
        "meta_mean_motion": 14.45395467,
        "meta_eccentricity": 0.00197878,
        "meta_inclination": 74.0369,
        "meta_ra_of_asc_node": 259.7366,
        "meta_arg_of_pericenter": 336.2714,
        "meta_mean_anomaly": 23.753,
        "meta_ephemeris_type": 0,
        "meta_classification_type": "U",
        "meta_norad_cat_id": 37998,
        "meta_element_set_no": 999,
        "meta_rev_at_epoch": 64096,
        "meta_bstar": 0.00059073677,
        "meta_mean_motion_dot": 2.057e-05,
        "meta_mean_motion_ddot": 0,
        "tle_line1": "1 37998U 93036BQZ 25333.52154828  .00002057  00000+0  59074-3 0  9999",
        "tle_line2": "2 37998  74.0369 259.7366 0019787 336.2714  23.7530 14.45395467640966"
      },
      "geometry": {
        "type": "Point",
        "coordinates": [
          -57.26838692380912,
          70.17694663201878
        ]
      }
    }
  ]
}